start=new Date('2022-08-02T00:00:00.000Z').valueOf();
sats=[{"SITE":"AFETR","GP_ID":"209387989","OBJECT_NAME":"STARLINK-1664","EPOCH":"2022-08-01T17:02:55.135104","MEAN_MOTION_DDOT":"0.0000000000000","ELEMENT_SET_NO":"999","REV_AT_EPOCH":"10157","ECCENTRICITY":"0.00011810","NORAD_CAT_ID":"46553","PERIAPSIS":"546.425","TLE_LINE1":"1 46553U 20070X   22213.71036036 -.00000286  00000-0 -34453-6 0  9991","FILE":"3527139","BSTAR":"-0.00000034453000","RCS_SIZE":"LARGE","SEMIMAJOR_AXIS":"6925.378","APOAPSIS":"548.061","RA_OF_ASC_NODE":"294.2948","OBJECT_TYPE":"PAYLOAD","PERIOD":"95.593","TIME_SYSTEM":"UTC","EPHEMERIS_TYPE":"0","COUNTRY_CODE":"US","MEAN_ANOMALY":"277.0753","CLASSIFICATION_TYPE":"U","DECAY_DATE":null,"MEAN_MOTION":"15.06390329","LAUNCH_DATE":"2020-10-06","REF_FRAME":"TEME","TLE_LINE2":"2 46553  53.0553 294.2948 0001181  83.0370 277.0753 15.06390329101579","ARG_OF_PERICENTER":"83.0370","INCLINATION":"53.0553","MEAN_MOTION_DOT":"-0.00000286","CENTER_NAME":"EARTH","MEAN_ELEMENT_THEORY":"SGP4","OBJECT_ID":"2020-070X"},{"DECAY_DATE":null,"MEAN_MOTION":"15.06398714","LAUNCH_DATE":"2020-10-06","REF_FRAME":"TEME","CLASSIFICATION_TYPE":"U","MEAN_ANOMALY":"263.7466","COUNTRY_CODE":"US","EPHEMERIS_TYPE":"0","PERIOD":"95.592","TIME_SYSTEM":"UTC","RA_OF_ASC_NODE":"309.9325","OBJECT_TYPE":"PAYLOAD","CENTER_NAME":"EARTH","MEAN_ELEMENT_THEORY":"SGP4","OBJECT_ID":"2020-070Y","MEAN_MOTION_DOT":"0.00000196","INCLINATION":"53.0556","ARG_OF_PERICENTER":"96.3657","TLE_LINE2":"2 46554  53.0556 309.9325 0001181  96.3657 263.7466 15.06398714101345","PERIAPSIS":"546.400","ECCENTRICITY":"0.00011810","NORAD_CAT_ID":"46554","REV_AT_EPOCH":"10134","MEAN_MOTION_DDOT":"0.0000000000000","ELEMENT_SET_NO":"999","OBJECT_NAME":"STARLINK-1671","EPOCH":"2022-08-01T13:31:15.822912","SITE":"AFETR","GP_ID":"209331576","SEMIMAJOR_AXIS":"6925.352","APOAPSIS":"548.035","BSTAR":"0.00003204700000","RCS_SIZE":"LARGE","TLE_LINE1":"1 46554U 20070Y   22213.56337758  .00000196  00000-0  32047-4 0  9993","FILE":"3526929"},{"COUNTRY_CODE":"US","MEAN_ANOMALY":"282.4133","CLASSIFICATION_TYPE":"U","DECAY_DATE":null,"MEAN_MOTION":"15.06389290","LAUNCH_DATE":"2020-10-06","REF_FRAME":"TEME","RA_OF_ASC_NODE":"324.3706","OBJECT_TYPE":"PAYLOAD","PERIOD":"95.593","TIME_SYSTEM":"UTC","EPHEMERIS_TYPE":"0","INCLINATION":"53.0556","MEAN_MOTION_DOT":"-0.00000002","MEAN_ELEMENT_THEORY":"SGP4","CENTER_NAME":"EARTH","OBJECT_ID":"2020-070AA","TLE_LINE2":"2 46556  53.0556 324.3706 0001352  77.7007 282.4133 15.06389290101150","ARG_OF_PERICENTER":"77.7007","REV_AT_EPOCH":"10115","ECCENTRICITY":"0.00013520","NORAD_CAT_ID":"46556","PERIAPSIS":"546.310","GP_ID":"209387499","SITE":"AFETR","OBJECT_NAME":"STARLINK-1676","EPOCH":"2022-08-01T16:32:24.117792","MEAN_MOTION_DDOT":"0.0000000000000","ELEMENT_SET_NO":"999","SEMIMAJOR_AXIS":"6925.381","APOAPSIS":"548.183","TLE_LINE1":"1 46556U 20070AA  22213.68916803 -.00000002  00000-0  18749-4 0  9992","FILE":"3527139","BSTAR":"0.00001874900000","RCS_SIZE":"LARGE"},{"MEAN_MOTION_DDOT":"0.0000000000000","ELEMENT_SET_NO":"999","EPOCH":"2022-08-01T15:59:52.740960","OBJECT_NAME":"STARLINK-1679","GP_ID":"209387249","SITE":"AFETR","PERIAPSIS":"546.244","ECCENTRICITY":"0.00013810","NORAD_CAT_ID":"46557","REV_AT_EPOCH":"10136","BSTAR":"0.00009322400000","RCS_SIZE":"LARGE","TLE_LINE1":"1 46557U 20070AB  22213.66658265  .00001108  00000-0  93224-4 0  9994","FILE":"3527139","SEMIMAJOR_AXIS":"6925.335","APOAPSIS":"548.156","EPHEMERIS_TYPE":"0","TIME_SYSTEM":"UTC","PERIOD":"95.592","OBJECT_TYPE":"PAYLOAD","RA_OF_ASC_NODE":"309.4897","MEAN_MOTION":"15.06404446","DECAY_DATE":null,"REF_FRAME":"TEME","LAUNCH_DATE":"2020-10-06","CLASSIFICATION_TYPE":"U","MEAN_ANOMALY":"279.5657","COUNTRY_CODE":"US","ARG_OF_PERICENTER":"80.5488","TLE_LINE2":"2 46557  53.0549 309.4897 0001381  80.5488 279.5657 15.06404446101367","MEAN_ELEMENT_THEORY":"SGP4","CENTER_NAME":"EARTH","OBJECT_ID":"2020-070AB","MEAN_MOTION_DOT":"0.00001108","INCLINATION":"53.0549"},{"ELEMENT_SET_NO":"999","MEAN_MOTION_DDOT":"0.0000000000000","SITE":"AFETR","GP_ID":"209388489","EPOCH":"2022-08-01T17:46:02.133408","OBJECT_NAME":"STARLINK-1680","ECCENTRICITY":"0.00012230","NORAD_CAT_ID":"46558","PERIAPSIS":"546.376","REV_AT_EPOCH":"10134","FILE":"3527139","TLE_LINE1":"1 46558U 20070AC  22213.74030247  .00000404  00000-0  46018-4 0  9995","BSTAR":"0.00004601800000","RCS_SIZE":"LARGE","SEMIMAJOR_AXIS":"6925.358","APOAPSIS":"548.070","EPHEMERIS_TYPE":"0","OBJECT_TYPE":"PAYLOAD","RA_OF_ASC_NODE":"309.1401","PERIOD":"95.592","TIME_SYSTEM":"UTC","MEAN_MOTION":"15.06397060","DECAY_DATE":null,"LAUNCH_DATE":"2020-10-06","REF_FRAME":"TEME","COUNTRY_CODE":"US","MEAN_ANOMALY":"278.7762","CLASSIFICATION_TYPE":"U","TLE_LINE2":"2 46558  53.0573 309.1401 0001223  81.3366 278.7762 15.06397060101341","ARG_OF_PERICENTER":"81.3366","CENTER_NAME":"EARTH","MEAN_ELEMENT_THEORY":"SGP4","OBJECT_ID":"2020-070AC","INCLINATION":"53.0573","MEAN_MOTION_DOT":"0.00000404"},{"OBJECT_ID":"2020-070AD","MEAN_ELEMENT_THEORY":"SGP4","CENTER_NAME":"EARTH","INCLINATION":"53.0563","MEAN_MOTION_DOT":"-0.00000264","TLE_LINE2":"2 46559  53.0563 294.4941 0001117  79.7010 280.4104 15.06389728101561","ARG_OF_PERICENTER":"79.7010","LAUNCH_DATE":"2020-10-06","REF_FRAME":"TEME","DECAY_DATE":null,"MEAN_MOTION":"15.06389728","MEAN_ANOMALY":"280.4104","COUNTRY_CODE":"US","CLASSIFICATION_TYPE":"U","EPHEMERIS_TYPE":"0","RA_OF_ASC_NODE":"294.4941","OBJECT_TYPE":"PAYLOAD","PERIOD":"95.593","TIME_SYSTEM":"UTC","APOAPSIS":"548.019","SEMIMAJOR_AXIS":"6925.380","FILE":"3527139","TLE_LINE1":"1 46559U 20070AD  22213.66149604 -.00000264  00000-0  11420-5 0  9990","RCS_SIZE":"LARGE","BSTAR":"0.00000114200000","NORAD_CAT_ID":"46559","ECCENTRICITY":"0.00011170","PERIAPSIS":"546.471","REV_AT_EPOCH":"10156","MEAN_MOTION_DDOT":"0.0000000000000","ELEMENT_SET_NO":"999","GP_ID":"209386248","SITE":"AFETR","OBJECT_NAME":"STARLINK-1681","EPOCH":"2022-08-01T15:52:33.257856"},{"SITE":"AFETR","GP_ID":"209387000","EPOCH":"2022-08-01T14:56:10.619232","OBJECT_NAME":"STARLINK-1706","ELEMENT_SET_NO":"999","MEAN_MOTION_DDOT":"0.0000000000000","REV_AT_EPOCH":"10135","ECCENTRICITY":"0.00011920","NORAD_CAT_ID":"46560","PERIAPSIS":"546.325","FILE":"3527139","TLE_LINE1":"1 46560U 20070AE  22213.62234513 -.00006958  00000-0 -44840-3 0  9999","BSTAR":"-0.00044840000000","RCS_SIZE":"LARGE","SEMIMAJOR_AXIS":"6925.286","APOAPSIS":"547.976","OBJECT_TYPE":"PAYLOAD","RA_OF_ASC_NODE":"309.6714","PERIOD":"95.591","TIME_SYSTEM":"UTC","EPHEMERIS_TYPE":"0","MEAN_ANOMALY":"274.3777","COUNTRY_CODE":"US","CLASSIFICATION_TYPE":"U","MEAN_MOTION":"15.06420423","DECAY_DATE":null,"LAUNCH_DATE":"2020-10-06","REF_FRAME":"TEME","TLE_LINE2":"2 46560  53.0561 309.6714 0001192  85.7348 274.3777 15.06420423101355","ARG_OF_PERICENTER":"85.7348","INCLINATION":"53.0561","MEAN_MOTION_DOT":"-0.00006958","MEAN_ELEMENT_THEORY":"SGP4","CENTER_NAME":"EARTH","OBJECT_ID":"2020-070AE"},{"REV_AT_EPOCH":"10135","NORAD_CAT_ID":"46561","ECCENTRICITY":"0.00015670","PERIAPSIS":"546.137","GP_ID":"209387747","SITE":"AFETR","EPOCH":"2022-08-01T15:21:22.512096","OBJECT_NAME":"STARLINK-1709","MEAN_MOTION_DDOT":"0.0000000000000","ELEMENT_SET_NO":"999","APOAPSIS":"548.307","SEMIMAJOR_AXIS":"6925.357","TLE_LINE1":"1 46561U 20070AF  22213.63984389  .00000945  00000-0  82345-4 0  9995","FILE":"3527139","RCS_SIZE":"LARGE","BSTAR":"0.00008234500000","MEAN_ANOMALY":"284.1648","COUNTRY_CODE":"US","CLASSIFICATION_TYPE":"U","REF_FRAME":"TEME","LAUNCH_DATE":"2020-10-06","DECAY_DATE":null,"MEAN_MOTION":"15.06397237","OBJECT_TYPE":"PAYLOAD","RA_OF_ASC_NODE":"309.6204","PERIOD":"95.592","TIME_SYSTEM":"UTC","EPHEMERIS_TYPE":"0","INCLINATION":"53.0547","MEAN_MOTION_DOT":"0.00000945","OBJECT_ID":"2020-070AF","CENTER_NAME":"EARTH","MEAN_ELEMENT_THEORY":"SGP4","TLE_LINE2":"2 46561  53.0547 309.6204 0001567  75.9515 284.1648 15.06397237101359","ARG_OF_PERICENTER":"75.9515"},{"EPHEMERIS_TYPE":"0","RA_OF_ASC_NODE":"304.5907","OBJECT_TYPE":"PAYLOAD","TIME_SYSTEM":"UTC","PERIOD":"95.592","DECAY_DATE":null,"MEAN_MOTION":"15.06397113","LAUNCH_DATE":"2020-10-06","REF_FRAME":"TEME","MEAN_ANOMALY":"285.8358","COUNTRY_CODE":"US","CLASSIFICATION_TYPE":"U","TLE_LINE2":"2 46562  53.0546 304.5907 0001279  74.2772 285.8358 15.06397113101427","ARG_OF_PERICENTER":"74.2772","CENTER_NAME":"EARTH","MEAN_ELEMENT_THEORY":"SGP4","OBJECT_ID":"2020-070AG","INCLINATION":"53.0546","MEAN_MOTION_DOT":"0.00000546","ELEMENT_SET_NO":"999","MEAN_MOTION_DDOT":"0.0000000000000","SITE":"AFETR","GP_ID":"209387990","EPOCH":"2022-08-01T15:19:22.588896","OBJECT_NAME":"STARLINK-1714","ECCENTRICITY":"0.00012790","NORAD_CAT_ID":"46562","PERIAPSIS":"546.337","REV_AT_EPOCH":"10142","TLE_LINE1":"1 46562U 20070AG  22213.63845589  .00000546  00000-0  55552-4 0  9991","FILE":"3527139","BSTAR":"0.00005555200000","RCS_SIZE":"LARGE","SEMIMAJOR_AXIS":"6925.357","APOAPSIS":"548.108"},{"NORAD_CAT_ID":"46563","ECCENTRICITY":"0.00012350","PERIAPSIS":"546.389","REV_AT_EPOCH":"10141","ELEMENT_SET_NO":"999","MEAN_MOTION_DDOT":"0.0000000000000","GP_ID":"209331577","SITE":"AFETR","EPOCH":"2022-08-01T13:18:40.052736","OBJECT_NAME":"STARLINK-1730","APOAPSIS":"548.099","SEMIMAJOR_AXIS":"6925.379","TLE_LINE1":"1 46563U 20070AH  22213.55463024  .00001268  00000-0  10404-3 0  9991","FILE":"3526929","RCS_SIZE":"LARGE","BSTAR":"0.00010404000000","LAUNCH_DATE":"2020-10-06","REF_FRAME":"TEME","MEAN_MOTION":"15.06390086","DECAY_DATE":null,"COUNTRY_CODE":"US","MEAN_ANOMALY":"289.8220","CLASSIFICATION_TYPE":"U","EPHEMERIS_TYPE":"0","RA_OF_ASC_NODE":"304.9943","OBJECT_TYPE":"PAYLOAD","PERIOD":"95.593","TIME_SYSTEM":"UTC","OBJECT_ID":"2020-070AH","CENTER_NAME":"EARTH","MEAN_ELEMENT_THEORY":"SGP4","INCLINATION":"53.0557","MEAN_MOTION_DOT":"0.00001268","TLE_LINE2":"2 46563  53.0557 304.9943 0001235  70.2902 289.8220 15.06390086101410","ARG_OF_PERICENTER":"70.2902"}];
